IRIDIUM 63              
1 25286U 98021B   25298.77913312  .00000633  00000+0  20841-3 0  9991
2 25286  86.4025  27.3267 0002009  99.4174 260.7250 14.36675900442599
IRIDIUM 69              
1 25319U 98026A   25298.80690046  .00000915  00000+0  27791-3 0  9997
2 25319  86.4004  40.1892 0001493  12.9131 347.2107 14.41131573441870
IRIDIUM 71              
1 25320U 98026B   25298.79765153  .00000477  00000+0  14163-3 0  9991
2 25320  86.4010  34.8700 0003321  54.9000 305.2511 14.41272100442405
IRIDIUM 73              
1 25344U 98032C   25298.88116125  .00000748  00000+0  18049-3 0  9991
2 25344  86.4444 351.3258 0001574  93.4524 266.6862 14.51898304449524
IRIDIUM 82              
1 25467U 98051A   25298.94821519  .00054562  00000+0  11906-2 0  9992
2 25467  86.3649  45.0559 0070523 157.4839 202.9539 15.41330324444024
